{
    "CONSTELLATION": "Planet",
    "CDM_ID": "383757980",
    "FILENAME": "000051006_conj_000016719_2022321104023_67323.xml",
    "INSERT_EPOCH": "2022-11-15T20:46:23",
    "CCSDS_CDM_VERS": "1.0",
    "CREATION_DATE": "2022-11-15T16:12:00.000000",
    "ORIGINATOR": "CSpOC",
    "MESSAGE_FOR": "FLOCK 4X 3",
    "MESSAGE_ID": "000051006_conj_000016719_2022321104023_31916160067323",
    "COMMENT_EMERGENCY_REPORTABLE": "MEETS EMERGENCY CRITERIA",
    "TCA": "2022-11-17T10:40:23.476000",
    "MISS_DISTANCE": "105",
    "MISS_DISTANCE_UNIT": "m",
    "RELATIVE_SPEED": "15188",
    "RELATIVE_SPEED_UNIT": "m/s",
    "RELATIVE_POSITION_R": "-104.4",
    "RELATIVE_POSITION_R_UNIT": "m",
    "RELATIVE_POSITION_T": "-3.8",
    "RELATIVE_POSITION_T_UNIT": "m",
    "RELATIVE_POSITION_N": "13.1",
    "RELATIVE_POSITION_N_UNIT": "m",
    "RELATIVE_VELOCITY_R": "-0.1",
    "RELATIVE_VELOCITY_R_UNIT": "m/s",
    "RELATIVE_VELOCITY_T": "-15179.2",
    "RELATIVE_VELOCITY_T_UNIT": "m/s",
    "RELATIVE_VELOCITY_N": "524",
    "RELATIVE_VELOCITY_N_UNIT": "m/s",
    "COMMENT_SCREENING_OPTION": "Screening Option = Covariance",
    "COLLISION_PROBABILITY": "0.0006012108",
    "COLLISION_PROBABILITY_METHOD": "FOSTER-1992",
    "SAT1_COMMENT_SCREENING_DATA_SOURCE": null,
    "SAT1_OBJECT": "OBJECT1",
    "SAT1_OBJECT_DESIGNATOR": "51006",
    "SAT1_CATALOG_NAME": "SATCAT",
    "SAT1_OBJECT_NAME": "FLOCK 4X 3",
    "SAT1_INTERNATIONAL_DESIGNATOR": "2022-002Y",
    "SAT1_OBJECT_TYPE": "PAYLOAD",
    "SAT1_OPERATOR_CONTACT_POSITION": "https://www.space-track.org/expandedspacedata/query/class/organization/object/~~51006/orderby/ORG_NAME,INFO_ID/format/html/emptyresult/show/",
    "SAT1_OPERATOR_ORGANIZATION": "Planet",
    "SAT1_OPERATOR_PHONE": "https://www.space-track.org/expandedspacedata/query/class/organization/object/~~51006/orderby/ORG_NAME,INFO_ID/format/html/emptyresult/show/",
    "SAT1_OPERATOR_EMAIL": "https://www.space-track.org/expandedspacedata/query/class/organization/object/~~51006/orderby/ORG_NAME,INFO_ID/format/html/emptyresult/show/",
    "SAT1_EPHEMERIS_NAME": "NONE",
    "SAT1_COVARIANCE_METHOD": "CALCULATED",
    "SAT1_MANEUVERABLE": "YES",
    "SAT1_REF_FRAME": "ITRF",
    "SAT1_GRAVITY_MODEL": "EGM-96: 36D 36O",
    "SAT1_ATMOSPHERIC_MODEL": "JBH09",
    "SAT1_N_BODY_PERTURBATIONS": "MOON,SUN",
    "SAT1_SOLAR_RAD_PRESSURE": "YES",
    "SAT1_EARTH_TIDES": "YES",
    "SAT1_INTRACK_THRUST": "NO",
    "SAT1_COMMENT_COVARIANCE_SCALE_FACTOR": "Covariance Scale Factor = 1.000000",
    "SAT1_COMMENT_EXCLUSION_VOLUME_RADIUS": "Exclusion Volume Radius = 5.000000 [m]",
    "SAT1_TIME_LASTOB_START": "2022-11-14T16:12:00.780000",
    "SAT1_TIME_LASTOB_END": "2022-11-15T16:12:00.780000",
    "SAT1_RECOMMENDED_OD_SPAN": "4.02",
    "SAT1_RECOMMENDED_OD_SPAN_UNIT": "d",
    "SAT1_ACTUAL_OD_SPAN": "4.02",
    "SAT1_ACTUAL_OD_SPAN_UNIT": "d",
    "SAT1_OBS_AVAILABLE": "94",
    "SAT1_OBS_USED": "91",
    "SAT1_RESIDUALS_ACCEPTED": "100",
    "SAT1_RESIDUALS_ACCEPTED_UNIT": "%",
    "SAT1_WEIGHTED_RMS": "1.295",
    "SAT1_COMMENT_APOGEE": "Apogee Altitude = 532   [km]",
    "SAT1_COMMENT_PERIGEE": "Perigee Altitude = 506   [km]",
    "SAT1_COMMENT_INCLINATION": "Inclination = 97.5  [deg]",
    "SAT1_COMMENT_OPERATOR_HARD_BODY_RADIUS": "Operator Hard Body Radius = 1.00 [m]",
    "SAT1_AREA_PC": "0.1023",
    "SAT1_AREA_PC_UNIT": "m**2",
    "SAT1_CD_AREA_OVER_MASS": "0.025460595639",
    "SAT1_CD_AREA_OVER_MASS_UNIT": "m**2/kg",
    "SAT1_CR_AREA_OVER_MASS": "0.018059747876",
    "SAT1_CR_AREA_OVER_MASS_UNIT": "m**2/kg",
    "SAT1_THRUST_ACCELERATION": "0",
    "SAT1_THRUST_ACCELERATION_UNIT": "m/s**2",
    "SAT1_SEDR": "0.0021503",
    "SAT1_SEDR_UNIT": "W/kg",
    "SAT1_X": "-172.653107",
    "SAT1_X_UNIT": "km",
    "SAT1_Y": "-880.207155",
    "SAT1_Y_UNIT": "km",
    "SAT1_Z": "-6831.509509",
    "SAT1_Z_UNIT": "km",
    "SAT1_X_DOT": "-7.547016303",
    "SAT1_X_DOT_UNIT": "km/s",
    "SAT1_Y_DOT": "1.335101513",
    "SAT1_Y_DOT_UNIT": "km/s",
    "SAT1_Z_DOT": "0.017315361",
    "SAT1_Z_DOT_UNIT": "km/s",
    "SAT1_COMMENT_DCP_DENSITY_FORECAST_UNCERTAINTY": "DCP Density Forecast Uncertainty = 1.893927240000000E-01",
    "SAT1_COMMENT_DCP_SENSITIVITY_VECTOR_POSITION": "DCP Sensitivity Vector RTN Pos = -7.057548204934042E+01 1.354078371528283E+04  1.445335239153336E+00  [m]",
    "SAT1_COMMENT_DCP_SENSITIVITY_VECTOR_VELOCITY": "DCP Sensitivity Vector RTN Vel = -1.494120409730092E+01 3.701460071081808E-02  -8.696283836703664E-03 [m/sec]",
    "SAT1_CR_R": "1360.761412841663",
    "SAT1_CR_R_UNIT": "m**2",
    "SAT1_CT_R": "-27980.65738302823",
    "SAT1_CT_R_UNIT": "m**2",
    "SAT1_CT_T": "7035982.427392281",
    "SAT1_CT_T_UNIT": "m**2",
    "SAT1_CN_R": "210.3805014183933",
    "SAT1_CN_R_UNIT": "m**2",
    "SAT1_CN_T": "1826.946827301817",
    "SAT1_CN_T_UNIT": "m**2",
    "SAT1_CN_N": "331.0235183557189",
    "SAT1_CN_N_UNIT": "m**2",
    "SAT1_CRDOT_R": "31.24496325037386",
    "SAT1_CRDOT_R_UNIT": "m**2/s",
    "SAT1_CRDOT_T": "-7758.509120174653",
    "SAT1_CRDOT_T_UNIT": "m**2/s",
    "SAT1_CRDOT_N": "-2.021455208123943",
    "SAT1_CRDOT_N_UNIT": "m**2/s",
    "SAT1_CRDOT_RDOT": "8.556645538646126",
    "SAT1_CRDOT_RDOT_UNIT": "m**2/s**2",
    "SAT1_CTDOT_R": "-1.403584331646452",
    "SAT1_CTDOT_R_UNIT": "m**2/s",
    "SAT1_CTDOT_T": "10.13133280441347",
    "SAT1_CTDOT_T_UNIT": "m**2/s",
    "SAT1_CTDOT_N": "-0.2357901627533037",
    "SAT1_CTDOT_N_UNIT": "m**2/s",
    "SAT1_CTDOT_RDOT": "-0.01158842442023829",
    "SAT1_CTDOT_RDOT_UNIT": "m**2/s**2",
    "SAT1_CTDOT_TDOT": "0.001502579392117563",
    "SAT1_CTDOT_TDOT_UNIT": "m**2/s**2",
    "SAT1_CNDOT_R": "0.2335050550851493",
    "SAT1_CNDOT_R_UNIT": "m**2/s",
    "SAT1_CNDOT_T": "-2.265365070494777",
    "SAT1_CNDOT_T_UNIT": "m**2/s",
    "SAT1_CNDOT_N": "0.1171002985748019",
    "SAT1_CNDOT_N_UNIT": "m**2/s",
    "SAT1_CNDOT_RDOT": "0.002942687318839407",
    "SAT1_CNDOT_RDOT_UNIT": "m**2/s**2",
    "SAT1_CNDOT_TDOT": "-0.0002453547281023429",
    "SAT1_CNDOT_TDOT_UNIT": "m**2/s**2",
    "SAT1_CNDOT_NDOT": "0.0007498781740970351",
    "SAT1_CNDOT_NDOT_UNIT": "m**2/s**2",
    "SAT1_CDRG_R": "0",
    "SAT1_CDRG_R_UNIT": "m**3/kg",
    "SAT1_CDRG_T": "0",
    "SAT1_CDRG_T_UNIT": "m**3/kg",
    "SAT1_CDRG_N": "0",
    "SAT1_CDRG_N_UNIT": "m**3/kg",
    "SAT1_CDRG_RDOT": "0",
    "SAT1_CDRG_RDOT_UNIT": "m**3/(kg*s)",
    "SAT1_CDRG_TDOT": "0",
    "SAT1_CDRG_TDOT_UNIT": "m**3/(kg*s)",
    "SAT1_CDRG_NDOT": "0",
    "SAT1_CDRG_NDOT_UNIT": "m**3/(kg*s)",
    "SAT1_CDRG_DRG": "0",
    "SAT1_CDRG_DRG_UNIT": "m**4/kg**2",
    "SAT1_CSRP_R": "0",
    "SAT1_CSRP_R_UNIT": "m**3/kg",
    "SAT1_CSRP_T": "0",
    "SAT1_CSRP_T_UNIT": "m**3/kg",
    "SAT1_CSRP_N": "0",
    "SAT1_CSRP_N_UNIT": "m**3/kg",
    "SAT1_CSRP_RDOT": "0",
    "SAT1_CSRP_RDOT_UNIT": "m**3/(kg*s)",
    "SAT1_CSRP_TDOT": "0",
    "SAT1_CSRP_TDOT_UNIT": "m**3/(kg*s)",
    "SAT1_CSRP_NDOT": "0",
    "SAT1_CSRP_NDOT_UNIT": "m**3/(kg*s)",
    "SAT1_CSRP_DRG": "0",
    "SAT1_CSRP_DRG_UNIT": "m**4/kg**2",
    "SAT1_CSRP_SRP": "0",
    "SAT1_CSRP_SRP_UNIT": "m**4/kg**2",
    "SAT2_COMMENT_SCREENING_DATA_SOURCE": null,
    "SAT2_OBJECT": "OBJECT2",
    "SAT2_OBJECT_DESIGNATOR": "16719",
    "SAT2_CATALOG_NAME": "SATCAT",
    "SAT2_OBJECT_NAME": "COSMOS 1743",
    "SAT2_INTERNATIONAL_DESIGNATOR": "1986-034A",
    "SAT2_OBJECT_TYPE": "PAYLOAD",
    "SAT2_OPERATOR_CONTACT_POSITION": "https://www.space-track.org/expandedspacedata/query/class/organization/object/~~16719/orderby/ORG_NAME,INFO_ID/format/html/emptyresult/show/",
    "SAT2_OPERATOR_ORGANIZATION": "- Whitelist-Show public CDMs",
    "SAT2_OPERATOR_PHONE": "https://www.space-track.org/expandedspacedata/query/class/organization/object/~~16719/orderby/ORG_NAME,INFO_ID/format/html/emptyresult/show/",
    "SAT2_OPERATOR_EMAIL": "https://www.space-track.org/expandedspacedata/query/class/organization/object/~~16719/orderby/ORG_NAME,INFO_ID/format/html/emptyresult/show/",
    "SAT2_EPHEMERIS_NAME": "NONE",
    "SAT2_COVARIANCE_METHOD": "CALCULATED",
    "SAT2_MANEUVERABLE": "N/A",
    "SAT2_REF_FRAME": "ITRF",
    "SAT2_GRAVITY_MODEL": "EGM-96: 36D 36O",
    "SAT2_ATMOSPHERIC_MODEL": "JBH09",
    "SAT2_N_BODY_PERTURBATIONS": "MOON,SUN",
    "SAT2_SOLAR_RAD_PRESSURE": "YES",
    "SAT2_EARTH_TIDES": "YES",
    "SAT2_INTRACK_THRUST": "NO",
    "SAT2_COMMENT_COVARIANCE_SCALE_FACTOR": "Covariance Scale Factor = 1.000000",
    "SAT2_COMMENT_EXCLUSION_VOLUME_RADIUS": "Exclusion Volume Radius = 5.000000 [m]",
    "SAT2_TIME_LASTOB_START": "2022-11-14T16:12:00.074000",
    "SAT2_TIME_LASTOB_END": "2022-11-15T16:12:00.074000",
    "SAT2_RECOMMENDED_OD_SPAN": "2.96",
    "SAT2_RECOMMENDED_OD_SPAN_UNIT": "d",
    "SAT2_ACTUAL_OD_SPAN": "2.96",
    "SAT2_ACTUAL_OD_SPAN_UNIT": "d",
    "SAT2_OBS_AVAILABLE": "135",
    "SAT2_OBS_USED": "134",
    "SAT2_RESIDUALS_ACCEPTED": "98.9",
    "SAT2_RESIDUALS_ACCEPTED_UNIT": "%",
    "SAT2_WEIGHTED_RMS": "1.217",
    "SAT2_COMMENT_APOGEE": "Apogee Altitude = 532   [km]",
    "SAT2_COMMENT_PERIGEE": "Perigee Altitude = 505   [km]",
    "SAT2_COMMENT_INCLINATION": "Inclination = 82.5  [deg]",
    "SAT2_COMMENT_OPERATOR_HARD_BODY_RADIUS": null,
    "SAT2_AREA_PC": "8.5012",
    "SAT2_AREA_PC_UNIT": "m**2",
    "SAT2_CD_AREA_OVER_MASS": "0.014156231763",
    "SAT2_CD_AREA_OVER_MASS_UNIT": "m**2/kg",
    "SAT2_CR_AREA_OVER_MASS": "0.013665310668",
    "SAT2_CR_AREA_OVER_MASS_UNIT": "m**2/kg",
    "SAT2_THRUST_ACCELERATION": "0",
    "SAT2_THRUST_ACCELERATION_UNIT": "m/s**2",
    "SAT2_SEDR": "0.00116399",
    "SAT2_SEDR_UNIT": "W/kg",
    "SAT2_X": "-172.644513",
    "SAT2_X_UNIT": "km",
    "SAT2_Y": "-880.181637",
    "SAT2_Y_UNIT": "km",
    "SAT2_Z": "-6831.407674",
    "SAT2_Z_UNIT": "km",
    "SAT2_X_DOT": "7.490650326",
    "SAT2_X_DOT_UNIT": "km/s",
    "SAT2_Y_DOT": "-0.795441974",
    "SAT2_Y_DOT_UNIT": "km/s",
    "SAT2_Z_DOT": "-0.088079982",
    "SAT2_Z_DOT_UNIT": "km/s",
    "SAT2_COMMENT_DCP_DENSITY_FORECAST_UNCERTAINTY": "DCP Density Forecast Uncertainty = 1.890757800000000E-01",
    "SAT2_COMMENT_DCP_SENSITIVITY_VECTOR_POSITION": "DCP Sensitivity Vector RTN Pos = -3.740593519535065E+01 7.458413369162377E+03  7.817456803379664E-01  [m]",
    "SAT2_COMMENT_DCP_SENSITIVITY_VECTOR_VELOCITY": "DCP Sensitivity Vector RTN Vel = -8.208192395077450E+00 1.862241946113716E-02  5.044574110302368E-03  [m/sec]",
    "SAT2_CR_R": "391.0434176188931",
    "SAT2_CR_R_UNIT": "m**2",
    "SAT2_CT_R": "-12399.63338063058",
    "SAT2_CT_R_UNIT": "m**2",
    "SAT2_CT_T": "2132548.417677072",
    "SAT2_CT_T_UNIT": "m**2",
    "SAT2_CN_R": "-51.32817199414094",
    "SAT2_CN_R_UNIT": "m**2",
    "SAT2_CN_T": "431.9174498347037",
    "SAT2_CN_T_UNIT": "m**2",
    "SAT2_CN_N": "41.19501120086186",
    "SAT2_CN_N_UNIT": "m**2",
    "SAT2_CRDOT_R": "13.5138753151637",
    "SAT2_CRDOT_R_UNIT": "m**2/s",
    "SAT2_CRDOT_T": "-2346.263768790067",
    "SAT2_CRDOT_T_UNIT": "m**2/s",
    "SAT2_CRDOT_N": "-0.4644428402273969",
    "SAT2_CRDOT_N_UNIT": "m**2/s",
    "SAT2_CRDOT_RDOT": "2.581528811735148",
    "SAT2_CRDOT_RDOT_UNIT": "m**2/s**2",
    "SAT2_CTDOT_R": "-0.3969469173703018",
    "SAT2_CTDOT_R_UNIT": "m**2/s",
    "SAT2_CTDOT_T": "7.312178369567252",
    "SAT2_CTDOT_T_UNIT": "m**2/s",
    "SAT2_CTDOT_N": "0.05561263323468058",
    "SAT2_CTDOT_N_UNIT": "m**2/s",
    "SAT2_CTDOT_RDOT": "-0.00790174370983901",
    "SAT2_CTDOT_RDOT_UNIT": "m**2/s**2",
    "SAT2_CTDOT_TDOT": "0.0004190444134028854",
    "SAT2_CTDOT_TDOT_UNIT": "m**2/s**2",
    "SAT2_CNDOT_R": "0.009164794042633",
    "SAT2_CNDOT_R_UNIT": "m**2/s",
    "SAT2_CNDOT_T": "1.082606088818343",
    "SAT2_CNDOT_T_UNIT": "m**2/s",
    "SAT2_CNDOT_N": "0.01449705807751241",
    "SAT2_CNDOT_N_UNIT": "m**2/s",
    "SAT2_CNDOT_RDOT": "-0.001191216305072161",
    "SAT2_CNDOT_RDOT_UNIT": "m**2/s**2",
    "SAT2_CNDOT_TDOT": "-0.00001370265263015684",
    "SAT2_CNDOT_TDOT_UNIT": "m**2/s**2",
    "SAT2_CNDOT_NDOT": "0.0000765355935770448",
    "SAT2_CNDOT_NDOT_UNIT": "m**2/s**2",
    "SAT2_CDRG_R": "0",
    "SAT2_CDRG_R_UNIT": "m**3/kg",
    "SAT2_CDRG_T": "0",
    "SAT2_CDRG_T_UNIT": "m**3/kg",
    "SAT2_CDRG_N": "0",
    "SAT2_CDRG_N_UNIT": "m**3/kg",
    "SAT2_CDRG_RDOT": "0",
    "SAT2_CDRG_RDOT_UNIT": "m**3/(kg*s)",
    "SAT2_CDRG_TDOT": "0",
    "SAT2_CDRG_TDOT_UNIT": "m**3/(kg*s)",
    "SAT2_CDRG_NDOT": "0",
    "SAT2_CDRG_NDOT_UNIT": "m**3/(kg*s)",
    "SAT2_CDRG_DRG": "0",
    "SAT2_CDRG_DRG_UNIT": "m**4/kg**2",
    "SAT2_CSRP_R": "0",
    "SAT2_CSRP_R_UNIT": "m**3/kg",
    "SAT2_CSRP_T": "0",
    "SAT2_CSRP_T_UNIT": "m**3/kg",
    "SAT2_CSRP_N": "0",
    "SAT2_CSRP_N_UNIT": "m**3/kg",
    "SAT2_CSRP_RDOT": "0",
    "SAT2_CSRP_RDOT_UNIT": "m**3/(kg*s)",
    "SAT2_CSRP_TDOT": "0",
    "SAT2_CSRP_TDOT_UNIT": "m**3/(kg*s)",
    "SAT2_CSRP_NDOT": "0",
    "SAT2_CSRP_NDOT_UNIT": "m**3/(kg*s)",
    "SAT2_CSRP_DRG": "0",
    "SAT2_CSRP_DRG_UNIT": "m**4/kg**2",
    "SAT2_CSRP_SRP": "0",
    "SAT2_CSRP_SRP_UNIT": "m**4/kg**2",
    "GID": "129"
}